{
  "type": "FeatureCollection",
  "features": [
    {
      "type": "Feature",
      "properties": {
        "norad_id": 66429,
        "name": "STARLINK-35533",
        "group": "last-30-days",
        "lat": 41.41851508287215,
        "lon": 174.17489240246712,
        "alt_km": 438.43471245501587,
        "timestamp": "2025-12-09T16:56:35.357806+00:00",
        "meta_object_name": "STARLINK-35533",
        "meta_object_id": "2025-259H",
        "meta_epoch": "2025-12-09T12:00:02.000160",
        "meta_mean_motion": 15.40658407,
        "meta_eccentricity": 0.0001313,
        "meta_inclination": 43.0008,
        "meta_ra_of_asc_node": 66.5675,
        "meta_arg_of_pericenter": 280.8657,
        "meta_mean_anomaly": 119.5051,
        "meta_ephemeris_type": 0,
        "meta_classification_type": "U",
        "meta_norad_cat_id": 66429,
        "meta_element_set_no": 999,
        "meta_rev_at_epoch": 575,
        "meta_bstar": 0.0008455,
        "meta_mean_motion_dot": 0.00035129,
        "meta_mean_motion_ddot": 0,
        "tle_line1": "1 66429U 25259H   25343.50002315  .00035129  00000+0  84550-3 0  9997",
        "tle_line2": "2 66429  43.0008  66.5675 0001313 280.8657 119.5051 15.40658407  5752"
      },
      "geometry": {
        "type": "Point",
        "coordinates": [
          174.17489240246712,
          41.41851508287215
        ]
      }
    },
    {
      "type": "Feature",
      "properties": {
        "norad_id": 66430,
        "name": "STARLINK-35470",
        "group": "last-30-days",
        "lat": 37.62809157116323,
        "lon": -170.465435572695,
        "alt_km": 439.07861970940485,
        "timestamp": "2025-12-09T16:56:35.357816+00:00",
        "meta_object_name": "STARLINK-35470",
        "meta_object_id": "2025-259J",
        "meta_epoch": "2025-12-09T12:00:02.000160",
        "meta_mean_motion": 15.40652645,
        "meta_eccentricity": 0.000139,
        "meta_inclination": 43.0005,
        "meta_ra_of_asc_node": 66.5383,
        "meta_arg_of_pericenter": 294.5616,
        "meta_mean_anomaly": 118.2355,
        "meta_ephemeris_type": 0,
        "meta_classification_type": "U",
        "meta_norad_cat_id": 66430,
        "meta_element_set_no": 999,
        "meta_rev_at_epoch": 575,
        "meta_bstar": 0.0011754,
        "meta_mean_motion_dot": 0.00049033,
        "meta_mean_motion_ddot": 0,
        "tle_line1": "1 66430U 25259J   25343.50002315  .00049033  00000+0  11754-2 0  9993",
        "tle_line2": "2 66430  43.0005  66.5383 0001390 294.5616 118.2355 15.40652645  5750"
      },
      "geometry": {
        "type": "Point",
        "coordinates": [
          -170.465435572695,
          37.62809157116323
        ]
      }
    },
    {
      "type": "Feature",
      "properties": {
        "norad_id": 66431,
        "name": "STARLINK-35439",
        "group": "last-30-days",
        "lat": 32.07221780847426,
        "lon": -156.93534202990932,
        "alt_km": 439.7421014962183,
        "timestamp": "2025-12-09T16:56:35.357827+00:00",
        "meta_object_name": "STARLINK-35439",
        "meta_object_id": "2025-259K",
        "meta_epoch": "2025-12-09T12:00:02.000160",
        "meta_mean_motion": 15.40728031,
        "meta_eccentricity": 0.0001248,
        "meta_inclination": 43.0005,
        "meta_ra_of_asc_node": 66.5071,
        "meta_arg_of_pericenter": 292.7285,
        "meta_mean_anomaly": 132.4382,
        "meta_ephemeris_type": 0,
        "meta_classification_type": "U",
        "meta_norad_cat_id": 66431,
        "meta_element_set_no": 999,
        "meta_rev_at_epoch": 575,
        "meta_bstar": -0.0012621,
        "meta_mean_motion_dot": -0.00052708,
        "meta_mean_motion_ddot": 0,
        "tle_line1": "1 66431U 25259K   25343.50002315 -.00052708  00000+0 -12621-2 0  9993",
        "tle_line2": "2 66431  43.0005  66.5071 0001248 292.7285 132.4382 15.40728031  5750"
      },
      "geometry": {
        "type": "Point",
        "coordinates": [
          -156.93534202990932,
          32.07221780847426
        ]
      }
    },
    {
      "type": "Feature",
      "properties": {
        "norad_id": 66432,
        "name": "STARLINK-35446",
        "group": "last-30-days",
        "lat": 25.19110382108402,
        "lon": -145.0271371970235,
        "alt_km": 440.4930294021924,
        "timestamp": "2025-12-09T16:56:35.357837+00:00",
        "meta_object_name": "STARLINK-35446",
        "meta_object_id": "2025-259L",
        "meta_epoch": "2025-12-09T12:00:02.000160",
        "meta_mean_motion": 15.40600483,
        "meta_eccentricity": 0.0001119,
        "meta_inclination": 43.0002,
        "meta_ra_of_asc_node": 66.4758,
        "meta_arg_of_pericenter": 248.2938,
        "meta_mean_anomaly": 189.4661,
        "meta_ephemeris_type": 0,
        "meta_classification_type": "U",
        "meta_norad_cat_id": 66432,
        "meta_element_set_no": 999,
        "meta_rev_at_epoch": 575,
        "meta_bstar": 0.0018621,
        "meta_mean_motion_dot": 0.00078023,
        "meta_mean_motion_ddot": 0,
        "tle_line1": "1 66432U 25259L   25343.50002315  .00078023  00000+0  18621-2 0  9996",
        "tle_line2": "2 66432  43.0002  66.4758 0001119 248.2938 189.4661 15.40600483  5759"
      },
      "geometry": {
        "type": "Point",
        "coordinates": [
          -145.0271371970235,
          25.19110382108402
        ]
      }
    },
    {
      "type": "Feature",
      "properties": {
        "norad_id": 66433,
        "name": "STARLINK-35457",
        "group": "last-30-days",
        "lat": 17.532189049408434,
        "lon": -134.5578532663922,
        "alt_km": 441.52310458801,
        "timestamp": "2025-12-09T16:56:35.357862+00:00",
        "meta_object_name": "STARLINK-35457",
        "meta_object_id": "2025-259M",
        "meta_epoch": "2025-12-09T12:00:02.000160",
        "meta_mean_motion": 15.40658861,
        "meta_eccentricity": 0.0001217,
        "meta_inclination": 43.0001,
        "meta_ra_of_asc_node": 66.4462,
        "meta_arg_of_pericenter": 254.3597,
        "meta_mean_anomaly": 195.7645,
        "meta_ephemeris_type": 0,
        "meta_classification_type": "U",
        "meta_norad_cat_id": 66433,
        "meta_element_set_no": 999,
        "meta_rev_at_epoch": 575,
        "meta_bstar": 0.00086992,
        "meta_mean_motion_dot": 0.00036158,
        "meta_mean_motion_ddot": 0,
        "tle_line1": "1 66433U 25259M   25343.50002315  .00036158  00000+0  86992-3 0  9997",
        "tle_line2": "2 66433  43.0001  66.4462 0001217 254.3597 195.7645 15.40658861  5754"
      },
      "geometry": {
        "type": "Point",
        "coordinates": [
          -134.5578532663922,
          17.532189049408434
        ]
      }
    },
    {
      "type": "Feature",
      "properties": {
        "norad_id": 66434,
        "name": "STARLINK-35389",
        "group": "last-30-days",
        "lat": 9.341938347140529,
        "lon": -124.93778915470715,
        "alt_km": 442.7008474833492,
        "timestamp": "2025-12-09T16:56:35.357874+00:00",
        "meta_object_name": "STARLINK-35389",
        "meta_object_id": "2025-259N",
        "meta_epoch": "2025-12-09T12:00:02.000160",
        "meta_mean_motion": 15.40648602,
        "meta_eccentricity": 8.99e-05,
        "meta_inclination": 43.0002,
        "meta_ra_of_asc_node": 66.4173,
        "meta_arg_of_pericenter": 263.6832,
        "meta_mean_anomaly": 198.884,
        "meta_ephemeris_type": 0,
        "meta_classification_type": "U",
        "meta_norad_cat_id": 66434,
        "meta_element_set_no": 999,
        "meta_rev_at_epoch": 575,
        "meta_bstar": 0.0012437,
        "meta_mean_motion_dot": 0.00051913,
        "meta_mean_motion_ddot": 0,
        "tle_line1": "1 66434U 25259N   25343.50002315  .00051913  00000+0  12437-2 0  9996",
        "tle_line2": "2 66434  43.0002  66.4173 0000899 263.6832 198.8840 15.40648602  5758"
      },
      "geometry": {
        "type": "Point",
        "coordinates": [
          -124.93778915470715,
          9.341938347140529
        ]
      }
    },
    {
      "type": "Feature",
      "properties": {
        "norad_id": 66435,
        "name": "STARLINK-35502",
        "group": "last-30-days",
        "lat": 0.8988776638662125,
        "lon": -115.76542791946875,
        "alt_km": 443.835689840329,
        "timestamp": "2025-12-09T16:56:35.357885+00:00",
        "meta_object_name": "STARLINK-35502",
        "meta_object_id": "2025-259P",
        "meta_epoch": "2025-12-09T12:00:02.000160",
        "meta_mean_motion": 15.40653888,
        "meta_eccentricity": 0.0001092,
        "meta_inclination": 42.9997,
        "meta_ra_of_asc_node": 66.3863,
        "meta_arg_of_pericenter": 271.4031,
        "meta_mean_anomaly": 203.6159,
        "meta_ephemeris_type": 0,
        "meta_classification_type": "U",
        "meta_norad_cat_id": 66435,
        "meta_element_set_no": 999,
        "meta_rev_at_epoch": 575,
        "meta_bstar": 0.0010728,
        "meta_mean_motion_dot": 0.00044705,
        "meta_mean_motion_ddot": 0,
        "tle_line1": "1 66435U 25259P   25343.50002315  .00044705  00000+0  10728-2 0  9999",
        "tle_line2": "2 66435  42.9997  66.3863 0001092 271.4031 203.6159 15.40653888  5759"
      },
      "geometry": {
        "type": "Point",
        "coordinates": [
          -115.76542791946875,
          0.8988776638662125
        ]
      }
    }
  ]
}